LEMUR-2-ANDIS           
1 42838U 17042P   26068.55941107  .00023598  00000+0  79875-3 0  9998
2 42838  97.3659 249.7950 0009101   4.3248 355.8070 15.30557934473198
STARLINK-31410          
1 59179U 24045B   26068.45320963 -.00000150  00000+0  40978-5 0  9999
2 59179  43.0060  94.0186 0001537 287.7570  72.3113 15.27577428113129
